[{"OBJECT_NAME":"NUSAT-49 (KLARA DAN VON NEUMANN)","OBJECT_ID":"2024-149AJ","EPOCH":"2026-03-09T19:09:16.004160","MEAN_MOTION":15.30828857,"ECCENTRICITY":0.00011321,"INCLINATION":97.3807,"RA_OF_ASC_NODE":150.738,"ARG_OF_PERICENTER":286.7761,"MEAN_ANOMALY":73.3356,"EPHEMERIS_TYPE":0,"CLASSIFICATION_TYPE":"U","NORAD_CAT_ID":60500,"ELEMENT_SET_NO":999,"REV_AT_EPOCH":8693,"BSTAR":0.00043568345,"MEAN_MOTION_DOT":0.00012912,"MEAN_MOTION_DDOT":0},{"OBJECT_NAME":"STARLINK-34711","OBJECT_ID":"2025-157J","EPOCH":"2026-03-09T01:08:10.094784","MEAN_MOTION":15.30186348,"ECCENTRICITY":0.00011868,"INCLINATION":53.1607,"RA_OF_ASC_NODE":348.7835,"ARG_OF_PERICENTER":85.5411,"MEAN_ANOMALY":274.5725,"EPHEMERIS_TYPE":0,"CLASSIFICATION_TYPE":"U","NORAD_CAT_ID":64912,"ELEMENT_SET_NO":999,"REV_AT_EPOCH":3602,"BSTAR":0.00060582939,"MEAN_MOTION_DOT":0.00017619,"MEAN_MOTION_DDOT":0}]
